48226,ONEWEB-0205,2021,109.55,148.0,+,87.91,Active,1,LEO,Russia,UK,Commercial,Communications,Soyuz,1 48226U 21031S   25230.87403263  .00000101  00000+0  23712-3 0  9993,2 48226  87.9082 349.8620 0001707 105.4896 254.6423 13.14503087208567,13.14503087,0.0001707,LEO
48227,ONEWEB-0206,2021,109.55,148.0,+,87.91,Active,1,LEO,Russia,UK,Commercial,Communications,Soyuz,1 48227U 21031T   25231.37989753  .00000093  00000+0  21516-3 0  9993,2 48227  87.9088 349.7424 0001830 101.7770 258.3565 13.14501918208583,13.14501918,0.000183,LEO
48228,ONEWEB-0182,2021,109.55,148.0,+,87.91,Active,1,LEO,Russia,UK,Commercial,Communications,Soyuz,1 48228U 21031U   25231.37514387 -.00000020  00000+0 -89352-4 0  9996,2 48228  87.9084 349.7877 0002015 103.8039 256.3315 13.14504545208792,13.14504545,0.0002015,LEO
48229,ONEWEB-0186,2021,109.55,148.0,+,87.91,Active,1,LEO,Russia,UK,Commercial,Communications,Soyuz,1 48229U 21031V   25231.38624922  .00000265  00000+0  68032-3 0  9995,2 48229  87.9089 349.7471 0001744 101.9604 258.1722 13.14503552208747,13.14503552,0.0001744,LEO
48230,ONEWEB-0181,2021,109.55,148.0,+,87.91,Active,1,LEO,Russia,UK,Commercial,Communications,Soyuz,1 48230U 21031W   25231.36404083 -.00000114  00000+0 -34218-3 0  9993,2 48230  87.9083 349.8244 0001652  99.3962 260.7354 13.14501590208590,13.1450159,0.0001652,LEO
48231,ONEWEB-0188,2021,109.55,148.0,+,87.91,Active,1,LEO,Russia,UK,Commercial,Communications,Soyuz,1 48231U 21031X   25230.86926972  .00000156  00000+0  38752-3 0  9995,2 48231  87.9091 349.9129 0001811 100.8917 259.2416 13.14501806208422,13.14501806,0.0001811,LEO
48232,ONEWEB-0220,2021,109.55,148.0,+,87.91,Active,1,LEO,Russia,UK,Commercial,Communications,Soyuz,1 48232U 21031Y   25231.36562322 -.00000143  00000+0 -42092-3 0  9997,2 48232  87.9085 349.7539 0001746 107.6845 252.4475 13.14504327208758,13.14504327,0.0001746,LEO
48233,ONEWEB-0165,2021,109.55,148.0,+,87.91,Active,1,LEO,Russia,UK,Commercial,Communications,Soyuz,1 48233U 21031Z   25231.31805072  .00000273  00000+0  70257-3 0  9991,2 48233  87.9076 349.8066 0001684 106.2627 253.8688 13.14503780208707,13.1450378,0.0001684,LEO
